[{"OBJECT_NAME":"ONEWEB-0395","OBJECT_ID":"2021-132G","EPOCH":"2025-09-19T22:10:24.110688","MEAN_MOTION":13.11419318,"ECCENTRICITY":0.00018798,"INCLINATION":87.878,"RA_OF_ASC_NODE":74.919,"ARG_OF_PERICENTER":95.8473,"MEAN_ANOMALY":264.2869,"EPHEMERIS_TYPE":0,"CLASSIFICATION_TYPE":"U","NORAD_CAT_ID":50475,"ELEMENT_SET_NO":999,"REV_AT_EPOCH":18029,"BSTAR":0.0011908777,"MEAN_MOTION_DOT":4.35e-6,"MEAN_MOTION_DDOT":0},{"OBJECT_NAME":"ONEWEB-0396","OBJECT_ID":"2021-132H","EPOCH":"2025-09-20T01:07:20.483904","MEAN_MOTION":13.18684643,"ECCENTRICITY":0.00018064,"INCLINATION":87.9203,"RA_OF_ASC_NODE":29.0913,"ARG_OF_PERICENTER":93.5247,"MEAN_ANOMALY":266.6092,"EPHEMERIS_TYPE":0,"CLASSIFICATION_TYPE":"U","NORAD_CAT_ID":50476,"ELEMENT_SET_NO":999,"REV_AT_EPOCH":18603,"BSTAR":0.0001048197,"MEAN_MOTION_DOT":5.4e-7,"MEAN_MOTION_DDOT":0},{"OBJECT_NAME":"ONEWEB-0397","OBJECT_ID":"2021-132J","EPOCH":"2025-09-20T01:28:43.943808","MEAN_MOTION":13.18686576,"ECCENTRICITY":0.00016753,"INCLINATION":87.9198,"RA_OF_ASC_NODE":29.0896,"ARG_OF_PERICENTER":91.9658,"MEAN_ANOMALY":268.1666,"EPHEMERIS_TYPE":0,"CLASSIFICATION_TYPE":"U","NORAD_CAT_ID":50477,"ELEMENT_SET_NO":999,"REV_AT_EPOCH":18601,"BSTAR":0.00039786429,"MEAN_MOTION_DOT":1.7e-6,"MEAN_MOTION_DDOT":0},{"OBJECT_NAME":"ONEWEB-0398","OBJECT_ID":"2021-132K","EPOCH":"2025-09-19T23:13:50.993184","MEAN_MOTION":13.11416196,"ECCENTRICITY":0.00018021,"INCLINATION":87.8786,"RA_OF_ASC_NODE":74.8763,"ARG_OF_PERICENTER":103.9188,"MEAN_ANOMALY":256.214,"EPHEMERIS_TYPE":0,"CLASSIFICATION_TYPE":"U","NORAD_CAT_ID":50478,"ELEMENT_SET_NO":999,"REV_AT_EPOCH":18019,"BSTAR":-0.001999541,"MEAN_MOTION_DOT":-6.96e-6,"MEAN_MOTION_DDOT":0},{"OBJECT_NAME":"ONEWEB-0399","OBJECT_ID":"2021-132L","EPOCH":"2025-09-19T22:54:20.191104","MEAN_MOTION":13.11414048,"ECCENTRICITY":0.00020841,"INCLINATION":87.8778,"RA_OF_ASC_NODE":74.9,"ARG_OF_PERICENTER":79.7255,"MEAN_ANOMALY":280.4108,"EPHEMERIS_TYPE":0,"CLASSIFICATION_TYPE":"U","NORAD_CAT_ID":50479,"ELEMENT_SET_NO":999,"REV_AT_EPOCH":18018,"BSTAR":-0.00062072184,"MEAN_MOTION_DOT":-2.07e-6,"MEAN_MOTION_DDOT":0},{"OBJECT_NAME":"ONEWEB-0400","OBJECT_ID":"2021-132M","EPOCH":"2025-09-20T02:47:06.567936","MEAN_MOTION":13.18686301,"ECCENTRICITY":0.000173,"INCLINATION":87.9196,"RA_OF_ASC_NODE":29.0692,"ARG_OF_PERICENTER":103.0984,"MEAN_ANOMALY":257.0342,"EPHEMERIS_TYPE":0,"CLASSIFICATION_TYPE":"U","NORAD_CAT_ID":50480,"ELEMENT_SET_NO":999,"REV_AT_EPOCH":18601,"BSTAR":0.00010524296,"MEAN_MOTION_DOT":5.4e-7,"MEAN_MOTION_DDOT":0},{"OBJECT_NAME":"ONEWEB-0401","OBJECT_ID":"2021-132N","EPOCH":"2025-09-20T02:01:59.419200","MEAN_MOTION":13.18686745,"ECCENTRICITY":0.00015895,"INCLINATION":87.9202,"RA_OF_ASC_NODE":29.0717,"ARG_OF_PERICENTER":93.82,"MEAN_ANOMALY":266.3114,"EPHEMERIS_TYPE":0,"CLASSIFICATION_TYPE":"U","NORAD_CAT_ID":50481,"ELEMENT_SET_NO":999,"REV_AT_EPOCH":18601,"BSTAR":0.00021486574,"MEAN_MOTION_DOT":9.8e-7,"MEAN_MOTION_DDOT":0},{"OBJECT_NAME":"ONEWEB-0402","OBJECT_ID":"2021-132P","EPOCH":"2025-09-20T01:09:44.517024","MEAN_MOTION":13.18686296,"ECCENTRICITY":0.00012378,"INCLINATION":87.92,"RA_OF_ASC_NODE":29.0723,"ARG_OF_PERICENTER":80.8106,"MEAN_ANOMALY":279.3166,"EPHEMERIS_TYPE":0,"CLASSIFICATION_TYPE":"U","NORAD_CAT_ID":50482,"ELEMENT_SET_NO":999,"REV_AT_EPOCH":18603,"BSTAR":-8.5594955e-5,"MEAN_MOTION_DOT":-2.1e-7,"MEAN_MOTION_DDOT":0},{"OBJECT_NAME":"ONEWEB-0403","OBJECT_ID":"2021-132Q","EPOCH":"2025-09-20T01:45:21.217536","MEAN_MOTION":13.18685296,"ECCENTRICITY":0.000184,"INCLINATION":87.9203,"RA_OF_ASC_NODE":29.0866,"ARG_OF_PERICENTER":98.2298,"MEAN_ANOMALY":261.9043,"EPHEMERIS_TYPE":0,"CLASSIFICATION_TYPE":"U","NORAD_CAT_ID":50483,"ELEMENT_SET_NO":999,"REV_AT_EPOCH":18599,"BSTAR":0.00017894782,"MEAN_MOTION_DOT":8.3e-7,"MEAN_MOTION_DDOT":0},{"OBJECT_NAME":"ONEWEB-0404","OBJECT_ID":"2021-132R","EPOCH":"2025-09-19T22:27:28.677312","MEAN_MOTION":13.11417102,"ECCENTRICITY":0.00020414,"INCLINATION":87.8781,"RA_OF_ASC_NODE":74.9104,"ARG_OF_PERICENTER":87.6743,"MEAN_ANOMALY":272.4618,"EPHEMERIS_TYPE":0,"CLASSIFICATION_TYPE":"U","NORAD_CAT_ID":50484,"ELEMENT_SET_NO":999,"REV_AT_EPOCH":18027,"BSTAR":0.0014046547,"MEAN_MOTION_DOT":5.11e-6,"MEAN_MOTION_DDOT":0},{"OBJECT_NAME":"ONEWEB-0405","OBJECT_ID":"2021-132S","EPOCH":"2025-09-20T02:06:44.910720","MEAN_MOTION":13.18690594,"ECCENTRICITY":0.00016905,"INCLINATION":87.9201,"RA_OF_ASC_NODE":29.0685,"ARG_OF_PERICENTER":89.6168,"MEAN_ANOMALY":270.5158,"EPHEMERIS_TYPE":0,"CLASSIFICATION_TYPE":"U","NORAD_CAT_ID":50485,"ELEMENT_SET_NO":999,"REV_AT_EPOCH":18639,"BSTAR":-0.0024092879,"MEAN_MOTION_DOT":-9.37e-6,"MEAN_MOTION_DDOT":0},{"OBJECT_NAME":"ONEWEB-0406","OBJECT_ID":"2021-132T","EPOCH":"2025-09-20T01:52:29.118720","MEAN_MOTION":13.18685419,"ECCENTRICITY":0.0002315,"INCLINATION":87.9201,"RA_OF_ASC_NODE":29.0944,"ARG_OF_PERICENTER":103.0797,"MEAN_ANOMALY":257.0594,"EPHEMERIS_TYPE":0,"CLASSIFICATION_TYPE":"U","NORAD_CAT_ID":50486,"ELEMENT_SET_NO":999,"REV_AT_EPOCH":18602,"BSTAR":9.2486883e-5,"MEAN_MOTION_DOT":4.9e-7,"MEAN_MOTION_DDOT":0},{"OBJECT_NAME":"ONEWEB-0407","OBJECT_ID":"2021-132U","EPOCH":"2025-09-20T01:42:59.179392","MEAN_MOTION":13.18686265,"ECCENTRICITY":0.00015671,"INCLINATION":87.9199,"RA_OF_ASC_NODE":29.0802,"ARG_OF_PERICENTER":99.6001,"MEAN_ANOMALY":260.5308,"EPHEMERIS_TYPE":0,"CLASSIFICATION_TYPE":"U","NORAD_CAT_ID":50487,"ELEMENT_SET_NO":999,"REV_AT_EPOCH":18596,"BSTAR":8.4220793e-5,"MEAN_MOTION_DOT":4.6e-7,"MEAN_MOTION_DDOT":0},{"OBJECT_NAME":"ONEWEB-0409","OBJECT_ID":"2021-132V","EPOCH":"2025-09-19T22:25:02.194752","MEAN_MOTION":13.11417421,"ECCENTRICITY":0.000201,"INCLINATION":87.8786,"RA_OF_ASC_NODE":74.8706,"ARG_OF_PERICENTER":93.7948,"MEAN_ANOMALY":266.3409,"EPHEMERIS_TYPE":0,"CLASSIFICATION_TYPE":"U","NORAD_CAT_ID":50488,"ELEMENT_SET_NO":999,"REV_AT_EPOCH":18016,"BSTAR":0.0015139824,"MEAN_MOTION_DOT":5.49e-6,"MEAN_MOTION_DDOT":0},{"OBJECT_NAME":"ONEWEB-0412","OBJECT_ID":"2021-132W","EPOCH":"2025-09-20T01:26:20.936256","MEAN_MOTION":13.18684684,"ECCENTRICITY":0.0001501,"INCLINATION":87.9198,"RA_OF_ASC_NODE":29.0952,"ARG_OF_PERICENTER":89.5029,"MEAN_ANOMALY":270.6275,"EPHEMERIS_TYPE":0,"CLASSIFICATION_TYPE":"U","NORAD_CAT_ID":50489,"ELEMENT_SET_NO":999,"REV_AT_EPOCH":18605,"BSTAR":0.00015732609,"MEAN_MOTION_DOT":7.5e-7,"MEAN_MOTION_DDOT":0},{"OBJECT_NAME":"ONEWEB-0413","OBJECT_ID":"2021-132X","EPOCH":"2025-09-20T01:33:28.996416","MEAN_MOTION":13.18685517,"ECCENTRICITY":0.00013725,"INCLINATION":87.92,"RA_OF_ASC_NODE":29.1109,"ARG_OF_PERICENTER":94.4514,"MEAN_ANOMALY":265.6775,"EPHEMERIS_TYPE":0,"CLASSIFICATION_TYPE":"U","NORAD_CAT_ID":50490,"ELEMENT_SET_NO":999,"REV_AT_EPOCH":18599,"BSTAR":0.00032036081,"MEAN_MOTION_DOT":1.39e-6,"MEAN_MOTION_DDOT":0},{"OBJECT_NAME":"ONEWEB-0414","OBJECT_ID":"2021-132Y","EPOCH":"2025-09-20T01:12:05.677344","MEAN_MOTION":13.18683908,"ECCENTRICITY":0.00017151,"INCLINATION":87.9199,"RA_OF_ASC_NODE":29.0732,"ARG_OF_PERICENTER":91.3737,"MEAN_ANOMALY":268.7592,"EPHEMERIS_TYPE":0,"CLASSIFICATION_TYPE":"U","NORAD_CAT_ID":50491,"ELEMENT_SET_NO":999,"REV_AT_EPOCH":18602,"BSTAR":4.6904868e-5,"MEAN_MOTION_DOT":3.1e-7,"MEAN_MOTION_DDOT":0}]
