ONEWEB-0395             
1 50475U 21132G   25262.92389017  .00000435  00000+0  11909-2 0  9999
2 50475  87.8780  74.9190 0001879  95.8473 264.2869 13.11419318180291
ONEWEB-0396             
1 50476U 21132H   25263.04676486  .00000054  00000+0  10482-3 0  9996
2 50476  87.9203  29.0913 0001806  93.5247 266.6092 13.18684643186035
ONEWEB-0397             
1 50477U 21132J   25263.06161972  .00000170  00000+0  39786-3 0  9995
2 50477  87.9198  29.0896 0001675  91.9658 268.1666 13.18686576186010
ONEWEB-0398             
1 50478U 21132K   25262.96795131 -.00000696  00000+0 -19995-2 0  9998
2 50478  87.8786  74.8763 0001802 103.9188 256.2140 13.11416196180198
ONEWEB-0399             
1 50479U 21132L   25262.95440036 -.00000207  00000+0 -62072-3 0  9992
2 50479  87.8778  74.9000 0002084  79.7255 280.4108 13.11414048180189
ONEWEB-0400             
1 50480U 21132M   25263.11604824  .00000054  00000+0  10524-3 0  9993
2 50480  87.9196  29.0692 0001730 103.0984 257.0342 13.18686301186019
ONEWEB-0401             
1 50481U 21132N   25263.08471550  .00000098  00000+0  21487-3 0  9996
2 50481  87.9202  29.0717 0001589  93.8200 266.3114 13.18686745186017
ONEWEB-0402             
1 50482U 21132P   25263.04843191 -.00000021  00000+0 -85595-4 0  9996
2 50482  87.9200  29.0723 0001237  80.8106 279.3166 13.18686296186038
ONEWEB-0403             
1 50483U 21132Q   25263.07316224  .00000083  00000+0  17895-3 0  9995
2 50483  87.9203  29.0866 0001840  98.2298 261.9043 13.18685296185999
ONEWEB-0404             
1 50484U 21132R   25262.93574858  .00000511  00000+0  14047-2 0  9990
2 50484  87.8781  74.9104 0002041  87.6743 272.4618 13.11417102180278
ONEWEB-0405             
1 50485U 21132S   25263.08801980 -.00000937  00000+0 -24093-2 0  9993
2 50485  87.9201  29.0685 0001690  89.6168 270.5158 13.18690594186396
ONEWEB-0406             
1 50486U 21132T   25263.07811480  .00000049  00000+0  92487-4 0  9995
2 50486  87.9201  29.0944 0002315 103.0797 257.0594 13.18685419186023
ONEWEB-0407             
1 50487U 21132U   25263.07151828  .00000046  00000+0  84221-4 0  9993
2 50487  87.9199  29.0802 0001567  99.6001 260.5308 13.18686265185963
ONEWEB-0409             
1 50488U 21132V   25262.93405318  .00000549  00000+0  15140-2 0  9994
2 50488  87.8786  74.8706 0002010  93.7948 266.3409 13.11417421180167
ONEWEB-0412             
1 50489U 21132W   25263.05996454  .00000075  00000+0  15733-3 0  9998
2 50489  87.9198  29.0952 0001501  89.5029 270.6275 13.18684684186055
ONEWEB-0413             
1 50490U 21132X   25263.06491894  .00000139  00000+0  32036-3 0  9995
2 50490  87.9200  29.1109 0001372  94.4514 265.6775 13.18685517185993
ONEWEB-0414             
1 50491U 21132Y   25263.05006571  .00000031  00000+0  46905-4 0  9991
2 50491  87.9199  29.0732 0001715  91.3737 268.7592 13.18683908186024
